OBJECT_NAME,OBJECT_ID,EPOCH,MEAN_MOTION,ECCENTRICITY,INCLINATION,RA_OF_ASC_NODE,ARG_OF_PERICENTER,MEAN_ANOMALY,EPHEMERIS_TYPE,CLASSIFICATION_TYPE,NORAD_CAT_ID,ELEMENT_SET_NO,REV_AT_EPOCH,BSTAR,MEAN_MOTION_DOT,MEAN_MOTION_DDOT
PERSEUS-M1,2014-033AF,2026-06-03T07:42:10.029888,14.95583258,.00111352,97.9640,98.2263,352.1450,7.9594,0,U,40039,999,64856,.23505262E-3,.255E-4,0
POLYITAN-1,2014-033AJ,2026-06-03T14:32:53.041344,15.32758052,.00075358,98.0950,179.5873,181.9734,178.1478,0,U,40042,999,65151,.62455666E-3,.19716E-3,0
TIGRISAT,2014-033AK,2026-06-03T07:17:38.210208,14.85102537,.00505935,97.7820,304.6356,119.5145,241.1129,0,U,40043,999,64356,.33355964E-3,.2863E-4,0
AEROCUBE 6A,2014-033AM,2026-06-03T22:21:35.646912,14.97953444,.00393588,97.7216,322.0234,61.3448,299.1723,0,U,40045,999,64463,.53534616E-3,.6356E-4,0
AEROCUBE 6B,2014-033AN,2026-06-02T00:16:42.556224,14.99378582,.00392777,97.7203,319.8803,60.1291,300.3825,0,U,40046,999,64448,.63413706E-3,.7828E-4,0
CANX-4,2014-034C,2026-06-03T15:24:01.164960,14.81238223,.00139376,98.3136,29.4566,57.9820,302.2744,0,U,40055,999,64252,.15161655E-3,.1125E-4,0
CANX-5,2014-034D,2026-06-03T16:59:15.745632,14.81255741,.00139378,98.3139,29.5679,57.8696,302.3866,0,U,40056,999,63334,.15834635E-3,.1178E-4,0
UKUBE-1,2014-037F,2026-06-03T13:09:49.703616,15.13321645,.00016466,98.4235,156.3901,150.7111,209.4210,0,U,40074,999,64649,.57522925E-3,.10176E-3,0
BRITE-PL2 (HEWELIUSZ),2014-049B,2026-06-03T07:31:39.473184,14.94537783,.00148153,97.9084,266.2083,151.1613,209.0429,0,U,40119,999,63937,.2460017E-3,.2604E-4,0
AEROCUBE 5C,2015-058B,2026-06-03T21:27:27.993600,14.91384448,.01302805,64.7685,303.9418,68.4830,293.0112,0,U,40965,999,36367,.2849574E-3,.318E-4,0
AEROCUBE 7,2015-058C,2026-06-03T19:04:08.618880,14.95631029,.01200134,64.7636,286.7614,67.0259,294.3464,0,U,40966,999,36395,.35185006E-3,.4353E-4,0
FOX-1A (AO-85),2015-058D,2026-06-03T20:53:10.788864,14.90897563,.01297539,64.7762,320.3664,61.8150,299.5996,0,U,40967,999,11158,.30117827E-3,.3322E-4,0
SINOD-D 1,2015-058E,2026-06-03T15:22:09.148224,14.95808519,.01183065,64.7764,301.3323,58.5158,302.7453,0,U,40968,999,11463,.35119394E-3,.4348E-4,0
SNAP-3 ALICE,2015-058G,2026-06-03T21:23:38.418432,15.56984744,.00319812,64.7499,149.7844,19.1967,341.0374,0,U,40970,999,11481,.15722136E-2,.11834E-2,0
LMRST-SAT,2015-058H,2026-06-03T19:43:57.258336,14.90521737,.01314504,64.7769,316.8280,63.8638,297.5928,0,U,40971,999,11156,.29921692E-3,.3279E-4,0
SNAP-3 EDDIE,2015-058J,2026-06-03T07:32:18.669408,15.58053367,.00319111,64.7418,142.5953,23.5246,336.7350,0,U,40972,999,11686,.15291697E-2,.119843E-2,0
PROPCUBE 3,2015-058K,2026-06-03T13:20:26.936448,14.94172395,.01234622,64.7695,295.1216,65.3437,296.0475,0,U,40973,999,11276,.32910668E-3,.3931E-4,0
BISONSAT,2015-058L,2026-06-03T12:14:51.019872,15.15903390,.0078228,64.7588,217.8525,52.8809,307.9429,0,U,40974,999,11354,.52055065E-3,.10633E-3,0
SNAP-3 JIMI,2015-058M,2026-06-02T16:14:15.808704,15.02157822,.01055494,64.7660,265.6777,61.3394,299.8287,0,U,40975,999,11204,.40230601E-3,.5808E-4,0
PROPCUBE 1 (FLORA),2015-058N,2026-06-03T15:07:56.903808,14.89150106,.0130197,64.7756,337.2500,66.2388,295.2315,0,U,40976,999,11424,.31461895E-3,.3319E-4,0
SINOD-D 3,2015-058P,2026-06-03T14:02:49.951968,14.93919640,.01187004,64.7737,318.2902,63.5682,297.7553,0,U,40977,999,11272,.38862817E-3,.459E-4,0
HORYU-4,2016-012D,2026-06-01T10:26:11.976576,15.85409012,.00022929,30.9850,193.7734,171.6706,188.3991,0,U,41340,999,56830,.10080768E-2,.260233E-2,0
RAVAN,2016-067B,2026-06-03T21:47:36.170592,15.53352905,.00062961,97.9900,42.9592,67.2892,292.9025,0,U,41849,999,52563,.86092891E-3,.54599E-3,0
CELTEE 1,2016-067C,2026-06-03T13:50:24.892800,15.19540482,.00006371,98.0684,20.2158,73.6065,286.5238,0,U,41850,999,52381,.30174042E-3,.6337E-4,0
OPTICUBE 04,2016-067D,2026-06-03T13:22:48.528768,15.09597028,.00161191,98.0706,6.1301,158.9050,201.2846,0,U,41851,999,52311,.14406702E-3,.225E-4,0
AEROCUBE 8D,2016-067E,2026-06-03T13:36:30.844224,15.24196511,.00038089,98.0693,23.7032,159.1321,201.0071,0,U,41852,999,52399,.3516622E-3,.8491E-4,0
AEROCUBE 8C,2016-067F,2026-06-03T14:15:40.427424,15.24440607,.00067656,98.0565,20.9777,105.1120,255.0864,0,U,41853,999,52399,.35315786E-3,.8593E-4,0
CORVUS BC2,2017-042X,2026-06-03T10:38:33.299808,15.06206681,.0013888,97.4063,316.3297,152.5583,207.6381,0,U,42846,999,48499,.27172268E-3,.3931E-4,0
CORVUS BC1,2017-042Y,2026-06-03T10:33:01.562688,15.06376199,.0013343,97.4093,317.1310,130.6661,229.5729,0,U,42847,999,48502,.25206892E-3,.3659E-4,0
MAKERSAT 0,2017-073D,2026-06-03T14:13:50.381472,15.31566895,.01068633,97.4651,37.0098,322.1681,37.2082,0,U,43016,999,46438,.66960801E-3,.24382E-3,0
